{"type":"FeatureCollection","features":[
{"type":"Feature","properties":{"id":194,"note":"Airport Third Runway"},"geometry":{"type":"MultiPolygon","coordinates":[[[[113.8771412,22.3219439],[113.8807764,22.3230374],[113.8810886,22.3234293],[113.8848576,22.3246259],[113.8857943,22.3246465],[113.9092501,22.332151],[113.9098746,22.3327905],[113.9135098,22.3338838],[113.914335,22.3338632],[113.9174795,22.3348327],[113.918037,22.3349152],[113.9185946,22.3347708],[113.9191521,22.3342964],[113.919665,22.3330792],[113.9198658,22.3329967],[113.9200665,22.3329761],[113.9207578,22.3330173],[113.9211816,22.3330173],[113.9215161,22.3328729],[113.9219175,22.3325841],[113.9235009,22.3284583],[113.936221,22.3246756],[113.9376929,22.3214985],[113.9377152,22.3214366],[113.9362209,22.3208795],[113.9356857,22.3208795],[113.9345706,22.323479],[113.9341246,22.3238916],[113.9334555,22.3239535],[113.8960361,22.3071347],[113.8910628,22.3071347],[113.8905499,22.3072998],[113.8903046,22.3076093],[113.889747,22.3089091],[113.889747,22.30959],[113.8899254,22.3100439],[113.8953225,22.3138815],[113.9009871,22.3157589],[113.9012547,22.3161303],[113.9011655,22.3166667],[113.8989105,22.3225319],[113.8985983,22.3229651],[113.8983083,22.3230064],[113.8979069,22.3229857],[113.8974163,22.3228207],[113.8790176,22.3169203],[113.87846,22.3168584],[113.8780809,22.3170441],[113.8776795,22.3173949],[113.8764975,22.3206958],[113.8764752,22.3211497],[113.8767205,22.3215623],[113.8771412,22.3219439]]]]}},
{"type":"Feature","properties":{"id":195,"note":""},"geometry":{"type":"MultiPolygon","coordinates":[[[[113.9423503,22.3142573],[113.9428087,22.3139544],[113.9466067,22.3146611],[113.9467158,22.3149034],[113.9471087,22.3153275],[113.9491823,22.3217285],[113.9494006,22.3222131],[113.949728,22.3224554],[113.9503392,22.3227582],[113.9510595,22.3228188],[113.9596442,22.3205154],[113.9601044,22.3206709],[113.9602902,22.3209984],[113.9603433,22.3214568],[113.9603974,22.3228671],[113.960424,22.3231946],[113.9607514,22.3234811],[113.9610257,22.3236366],[113.9614593,22.3236612],[113.961893,22.3235466],[113.9622469,22.3232601],[113.9623443,22.3228507],[113.9623443,22.3221467],[113.9621939,22.3200183],[113.9620257,22.3190114],[113.9594683,22.3112177],[113.959309,22.3109639],[113.9587957,22.3105218],[113.9580966,22.3101861],[113.9574595,22.3101206],[113.9568046,22.3102598],[113.9539993,22.3110867],[113.952858,22.3117429],[113.9514244,22.3124797],[113.9503448,22.3129136],[113.9488669,22.3133557],[113.9484422,22.3134457],[113.9477962,22.3134949],[113.9471148,22.3134294],[113.9468935,22.3133802],[113.9464334,22.313192],[113.9454157,22.3129382],[113.9433715,22.3125534],[113.9424777,22.3123241],[113.9419821,22.3120785],[113.9409556,22.3111534],[113.9405308,22.3104903],[113.9400618,22.3097371],[113.9396979,22.3084497],[113.9387333,22.3082369],[113.9395089,22.3107585],[113.9423503,22.3142573]]]]}},
{"type":"Feature","properties":{"id":196,"note":""},"geometry":{"type":"MultiPolygon","coordinates":[[[[113.9396172,22.3084397],[113.9397544,22.3073159],[113.9404793,22.305594],[113.9409886,22.3042527],[113.9410082,22.3033645],[113.9405772,22.3019869],[113.9390099,22.3003918],[113.9381478,22.2988873],[113.9375993,22.2967483],[113.9384221,22.2949891],[113.9382458,22.2947353],[113.9316238,22.3068619],[113.9396172,22.3084397]]]]}},
{"type":"Feature","properties":{"id":197,"note":""},"geometry":{"type":"MultiPolygon","coordinates":[[[[113.9441435,22.2944376],[113.9446656,22.2951621],[113.9450426,22.2954708],[113.9451006,22.2954439],[113.9462463,22.2964234],[113.9462318,22.2965173],[113.9465508,22.2968393],[113.9472904,22.2971748],[113.9492481,22.2982884],[113.9498862,22.2987714],[113.9552373,22.3040845],[113.9554549,22.3041919],[113.9556289,22.3041382],[113.9558464,22.3041248],[113.9560929,22.3041248],[113.9565425,22.3040711],[113.956905,22.3040711],[113.9571081,22.3040711],[113.9575721,22.3042187],[113.9579637,22.3043529],[113.9583407,22.3046078],[113.9583987,22.3048895],[113.9583697,22.3053591],[113.9580072,22.3057482],[113.9576736,22.3060568],[113.956586,22.3051981],[113.9583117,22.3068618],[113.9587613,22.3070094],[113.9591383,22.3070362],[113.9595589,22.3068886],[113.9607335,22.3060434],[113.9621111,22.3052384],[113.9638804,22.3043395],[113.9649085,22.3035717],[113.9659091,22.3024715],[113.9667937,22.3009151],[113.9671272,22.299721],[113.9671707,22.2996271],[113.9537834,22.2945648],[113.943659,22.2938397],[113.9441435,22.2944376]]]]}},
{"type":"Feature","properties":{"id":198,"note":""},"geometry":{"type":"MultiPolygon","coordinates":[[[[114.0333946,22.3089736],[114.0344186,22.3078247],[114.036532,22.3066354],[114.0384275,22.3059904],[114.040737,22.3058896],[114.0429375,22.3063331],[114.0447023,22.3071595],[114.0455084,22.3073006],[114.0454649,22.3071394],[114.045138,22.3071394],[114.0451816,22.306454],[114.0453123,22.3064339],[114.0453341,22.3069378],[114.0458135,22.3069378],[114.0458352,22.3065145],[114.045966,22.3063734],[114.045966,22.3058896],[114.0460749,22.3058896],[114.0461403,22.3072603],[114.0472732,22.3070789],[114.0476,22.3070587],[114.0554223,22.3108271],[114.0554441,22.3132055],[114.0550519,22.3151607],[114.0542893,22.3172569],[114.0534178,22.3192119],[114.053396,22.3200786],[114.047448,22.3185267],[114.0394866,22.3267103],[114.0337783,22.3263273],[114.0335604,22.3256018],[114.0331683,22.3093967],[114.0333946,22.3089736]]]]}},
{"type":"Feature","properties":{"id":199,"note":""},"geometry":{"type":"MultiPolygon","coordinates":[[[[114.0282349,22.3131966],[114.0283003,22.3121888],[114.0285182,22.3125516],[114.029564,22.3129749],[114.0287578,22.3133982],[114.0282349,22.3131966]]]]}},
{"type":"Feature","properties":{"id":200,"note":""},"geometry":{"type":"MultiPolygon","coordinates":[[[[114.0191024,22.3105438],[114.0177515,22.3105035],[114.0172286,22.3098584],[114.0174247,22.3071373],[114.0168582,22.3067341],[114.0168804,22.306405],[114.0173232,22.3064706],[114.017394,22.3063231],[114.0169512,22.3062903],[114.0169512,22.3060445],[114.0163667,22.3057987],[114.0159416,22.3063067],[114.0156051,22.3061428],[114.0157468,22.3040289],[114.0158176,22.3038815],[114.0159593,22.3037831],[114.0163844,22.3036029],[114.0169689,22.3034554],[114.0170575,22.3035046],[114.0179962,22.3030457],[114.018439,22.302931],[114.0190413,22.3030293],[114.0193246,22.3030186],[114.0188464,22.3023795],[114.0150029,22.3021173],[114.0127534,22.3042968],[114.0124878,22.3075413],[114.0153217,22.307951],[114.0182796,22.3120312],[114.0191024,22.3105438]]]]}},
{"type":"Feature","properties":{"id":201,"note":""},"geometry":{"type":"MultiPolygon","coordinates":[[[[114.0159909,22.3003074],[114.0156518,22.3002255],[114.0154601,22.2997071],[114.0155928,22.2982883],[114.0159172,22.2969377],[114.0161236,22.2967058],[114.0167282,22.2969104],[114.0172147,22.2969241],[114.0179667,22.2970468],[114.0180847,22.2969923],[114.0181289,22.2968558],[114.0154453,22.2960373],[114.012924,22.2996798],[114.0158287,22.3012077],[114.0159909,22.3003074]]]]}},
{"type":"Feature","properties":{"id":202,"note":""},"geometry":{"type":"MultiPolygon","coordinates":[[[[114.111942,22.3474778],[114.117749,22.3310484],[114.1142843,22.3274372],[114.1127716,22.327347],[114.11243,22.3285206],[114.1103317,22.3284754],[114.1102829,22.3271664],[114.1108196,22.327031],[114.1115028,22.3269407],[114.1113564,22.326715],[114.1102829,22.3267601],[114.1097461,22.3270761],[114.1089165,22.3269858],[114.1056958,22.3287463],[114.1064278,22.3408431],[114.111942,22.3474778]]]]}},
{"type":"Feature","properties":{"id":203,"note":""},"geometry":{"type":"MultiPolygon","coordinates":[[[[114.2552137,22.2991835],[114.2551838,22.2969194],[114.2562283,22.2970851],[114.2561089,22.3008124],[114.2568848,22.3009505],[114.2571534,22.3012818],[114.2596004,22.3013094],[114.2597794,22.3017235],[114.2601972,22.3017235],[114.2603166,22.3013646],[114.2608836,22.3012818],[114.261182,22.3011161],[114.2614804,22.3013094],[114.2617788,22.3013646],[114.2635693,22.3016959],[114.2648525,22.3042083],[114.2567356,22.3100061],[114.2498721,22.3100613],[114.2501705,22.3041531],[114.2552137,22.2991835]]]]}},
{"type":"Feature","properties":{"id":204,"note":""},"geometry":{"type":"MultiPolygon","coordinates":[[[[114.2665196,22.2745797],[114.266703,22.2739686],[114.2691612,22.2748853],[114.2699317,22.272984],[114.2678037,22.2721691],[114.2678771,22.271558],[114.2686476,22.2704715],[114.2691245,22.2704375],[114.2736374,22.2627979],[114.2741143,22.2624244],[114.2744079,22.2629337],[114.2749949,22.2629677],[114.2757287,22.2627979],[114.2766092,22.262764],[114.2768661,22.2626961],[114.2772697,22.2628658],[114.2775632,22.2633412],[114.2775632,22.2637147],[114.2775632,22.2639863],[114.2777099,22.2642919],[114.2779301,22.2642919],[114.2783337,22.2648352],[114.2779301,22.2650389],[114.2787006,22.2660915],[114.2793243,22.2659557],[114.2801682,22.2790953],[114.2664829,22.2784842],[114.2654556,22.2760736],[114.2666296,22.2740026],[114.2667397,22.2739686],[114.2667311,22.2740119],[114.2665196,22.2745797]]]]}},
{"type":"Feature","properties":{"id":205,"note":""},"geometry":{"type":"MultiPolygon","coordinates":[[[[114.2658291,22.3079284],[114.2658569,22.3073874],[114.2661354,22.3069752],[114.2658848,22.3063826],[114.2658848,22.3060992],[114.2666923,22.3058158],[114.2669151,22.305687],[114.2687251,22.3073101],[114.2675834,22.3082375],[114.2658291,22.3079284]]]]}},
{"type":"Feature","properties":{"id":206,"note":""},"geometry":{"type":"MultiPolygon","coordinates":[[[[114.1971173,22.4385668],[114.2146342,22.4259674],[114.2151125,22.4242542],[114.2149331,22.4222647],[114.214694,22.4215462],[114.2118243,22.4209936],[114.1947857,22.4359144],[114.1971173,22.4385668]]]]}},
{"type":"Feature","properties":{"id":207,"note":""},"geometry":{"type":"MultiPolygon","coordinates":[[[[114.2141648,22.4164807],[114.214477,22.4162709],[114.2147608,22.4150641],[114.2152716,22.4148542],[114.2152716,22.4146443],[114.2147608,22.4147755],[114.213881,22.412152],[114.2136256,22.4120995],[114.2126607,22.415169],[114.2141648,22.4164807]]]]}},
{"type":"Feature","properties":{"id":208,"note":""},"geometry":{"type":"MultiPolygon","coordinates":[[[[114.1029108,22.2167067],[114.1033662,22.2113664],[114.1075408,22.2114366],[114.1076926,22.2143177],[114.1070095,22.2150906],[114.1052638,22.2150906],[114.1045807,22.2163554],[114.1029108,22.2167067]]]]}}
]}
