{"type":"FeatureCollection","features":[{"type":"Feature","properties":{},"geometry":{"type":"Polygon","coordinates":[[[113.8965498,22.1425281],[113.8980045,22.1422016],[113.9159159,22.1381803],[113.9223843,22.1367275],[113.9245267,22.1381938],[113.9395509,22.1484753],[113.9706982,22.1485005],[113.9707635,22.1485006],[114.0434045,22.1485363],[114.116111,22.1485397],[114.1888176,22.1485107],[114.2359896,22.1484745],[114.2551592,22.1385597],[114.2615195,22.1407477],[114.2839952,22.1484772],[114.3092437,22.148492],[114.3092438,22.1484739],[114.5024627,22.1484583],[114.502469,22.3651285],[114.4560596,22.4662263],[114.4560373,22.4662205],[114.4548872,22.4687238],[114.4550467,22.5174331],[114.4551369,22.5449753],[114.4339657,22.5619965],[114.4076197,22.5636547],[114.3361896,22.5681287],[114.3347028,22.5682215],[114.3329625,22.5683301],[114.3090805,22.5666719],[114.2760209,22.5655037],[114.2617734,22.5604091],[114.2486648,22.5557203],[114.237054,22.5507223],[114.233629,22.5436708],[114.226349,22.5436691],[114.2263575,22.5436981],[114.2263592,22.5437043],[114.2263597,22.5437114],[114.2263594,22.5437201],[114.2263576,22.5437316],[114.2263564,22.5437384],[114.2263524,22.5437469],[114.2263455,22.5437565],[114.2262838,22.5438498],[114.2261738,22.5441549],[114.2261607,22.5441786],[114.2260742,22.5442747],[114.2260454,22.5443067],[114.2259971,22.5443778],[114.2258938,22.5445274],[114.2258504,22.544566],[114.2257118,22.5447691],[114.2254871,22.5450948],[114.2254218,22.5451905],[114.2254144,22.5452091],[114.2254089,22.545229],[114.2254029,22.545246],[114.2253954,22.5453143],[114.2254748,22.5454579],[114.2256076,22.5457068],[114.2256262,22.5457423],[114.2256546,22.5459011],[114.2256624,22.5459285],[114.225667,22.5459499],[114.2257748,22.5460845],[114.2262124,22.546563],[114.2264167,22.5468338],[114.2266209,22.5470595],[114.2269214,22.5478489],[114.226906,22.5480072],[114.2264784,22.5481811],[114.2261898,22.5483889],[114.226045,22.5485172],[114.2258492,22.5488211],[114.2257389,22.5489923],[114.2250528,22.5497501],[114.2245697,22.5501702],[114.224253,22.550881],[114.2241199,22.5509505],[114.223589,22.550967],[114.223275,22.5509174],[114.2230058,22.5510782],[114.2228619,22.5512001],[114.2225946,22.5513285],[114.2219336,22.5515562],[114.2217421,22.5515951],[114.2215282,22.5516006],[114.2213367,22.5517144],[114.2211676,22.5518671],[114.2209169,22.5522563],[114.2208363,22.5525697],[114.2208364,22.5530673],[114.2204759,22.5535975],[114.2203894,22.5536697],[114.220298,22.5536643],[114.2201667,22.5535894],[114.2200889,22.553584],[114.220017,22.5536057],[114.2199033,22.5536834],[114.219809,22.5537195],[114.2197536,22.5537756],[114.2197196,22.5538559],[114.2197167,22.5539616],[114.2196837,22.5540203],[114.2195223,22.5541531],[114.2194922,22.5542723],[114.219395,22.5544222],[114.2193698,22.5545839],[114.2190782,22.5549397],[114.2189062,22.5551285],[114.2186758,22.5553254],[114.2184426,22.5555504],[114.2182696,22.555675],[114.2180645,22.5558114],[114.2179449,22.5559361],[114.217837,22.5559921],[114.2177534,22.555984],[114.21745,22.555892],[114.2172808,22.5557918],[114.2170922,22.5558198],[114.2169337,22.5557286],[114.2169143,22.5556925],[114.2169813,22.5555896],[114.2169754,22.5554695],[114.2169365,22.555353],[114.2168704,22.5552645],[114.2167537,22.5551896],[114.2162695,22.5550615],[114.2161869,22.5550895],[114.2160673,22.5552728],[114.2160197,22.5552918],[114.215937,22.555309],[114.2158175,22.5553171],[114.2157533,22.5553144],[114.2156891,22.5552919],[114.2155948,22.5552341],[114.2154227,22.5550779],[114.215349,22.5550335],[114.2152894,22.5549976],[114.2152058,22.5549813],[114.2150862,22.5549778],[114.2149783,22.5549507],[114.2148091,22.5548947],[114.2144426,22.5548921],[114.2142501,22.554875],[114.2139649,22.5548478],[114.2139173,22.5548463],[114.2138567,22.5548382],[114.213775,22.5548293],[114.2137214,22.5548241],[114.2136547,22.554806],[114.2136184,22.5548021],[114.2135819,22.5548004],[114.2135339,22.5548006],[114.2134859,22.5548032],[114.2134515,22.5548064],[114.2134173,22.5548108],[114.2133933,22.5548147],[114.2133698,22.5548202],[114.2133439,22.5548278],[114.2133183,22.5548362],[114.2132647,22.5548545],[114.2132231,22.5548687],[114.2132112,22.5548728],[114.2131834,22.5548822],[114.2131375,22.5549076],[114.2130887,22.5549254],[114.2130358,22.5549388],[114.212983,22.5549522],[114.2128753,22.5549732],[114.2128516,22.5549799],[114.2128312,22.5549861],[114.2128112,22.5549931],[114.2127888,22.5550032],[114.2127677,22.5550156],[114.2127486,22.5550283],[114.2127304,22.5550419],[114.2127148,22.5550547],[114.2127001,22.5550682],[114.2126821,22.5550868],[114.2126647,22.5551058],[114.2126524,22.5551197],[114.2126405,22.5551339],[114.2126283,22.5551496],[114.2126173,22.5551659],[114.2126046,22.555187],[114.212592,22.5552081],[114.2125789,22.5552302],[114.2125658,22.5552523],[114.2125538,22.5552742],[114.2125425,22.5552964],[114.2125326,22.5553192],[114.2125213,22.5553415],[114.2125073,22.5553597],[114.212492,22.5553771],[114.2124769,22.5553954],[114.2124607,22.5554128],[114.2124409,22.5554297],[114.2124203,22.5554457],[114.2124033,22.5554602],[114.212385,22.5554729],[114.2123653,22.5554825],[114.2123456,22.5554917],[114.2123158,22.5555058],[114.212286,22.5555199],[114.2122561,22.5555326],[114.2122274,22.5555471],[114.2121899,22.5555721],[114.2121523,22.555597],[114.2120884,22.5556222],[114.2119922,22.5556765],[114.2119702,22.5556932],[114.2119528,22.5557152],[114.2119394,22.5557391],[114.2119341,22.5557575],[114.2119242,22.5558412],[114.2119112,22.5559024],[114.211899,22.5559299],[114.2118496,22.555984],[114.2117742,22.5560351],[114.211676,22.5560817],[114.2116597,22.5561001],[114.211652,22.5561182],[114.2116433,22.5562025],[114.2116316,22.5562488],[114.2115713,22.5563042],[114.2114797,22.5563716],[114.2113556,22.5564485],[114.21134,22.5564582],[114.2112956,22.5564858],[114.2111011,22.5562847],[114.2110435,22.5562215],[114.2109042,22.5561251],[114.2108565,22.5560804],[114.2107738,22.5559894],[114.2107279,22.5559368],[114.2106902,22.555919],[114.2106419,22.5559057],[114.2106024,22.5559042],[114.2105485,22.5559134],[114.2104375,22.5559443],[114.2103083,22.556007],[114.2101951,22.5560484],[114.2101585,22.5560542],[114.2101449,22.5560514],[114.21012,22.5560821],[114.2101023,22.5561349],[114.210085,22.5561654],[114.2100504,22.5561969],[114.2100349,22.5562036],[114.2100156,22.5562048],[114.2099283,22.5561865],[114.2098768,22.5561843],[114.2098319,22.556205],[114.2095512,22.5563902],[114.2094921,22.5564103],[114.2092653,22.556435],[114.2091027,22.5565062],[114.2089302,22.5566148],[114.2087616,22.5567681],[114.2086537,22.5568665],[114.2084939,22.556934],[114.2080458,22.5568296],[114.207957,22.5568089],[114.2067379,22.5565249],[114.206311,22.5565454],[114.2061772,22.5565158],[114.2061174,22.5565099],[114.2060169,22.5564907],[114.2059175,22.5564656],[114.2058863,22.556454],[114.2058195,22.5564403],[114.2057369,22.5564323],[114.2056403,22.5564325],[114.2055727,22.5564279],[114.2054639,22.5564079],[114.2053675,22.5563966],[114.2052656,22.5564036],[114.2051828,22.5563982],[114.2051187,22.5563714],[114.2049519,22.5563237],[114.2048985,22.556318],[114.2047779,22.5563182],[114.2045843,22.5563292],[114.2044812,22.5563473],[114.2043684,22.5563529],[114.2042134,22.5563389],[114.2041072,22.5563018],[114.2039771,22.5562708],[114.203899,22.5562596],[114.203783,22.5562318],[114.2037026,22.5562227],[114.2034756,22.556215],[114.2033086,22.5562176],[114.2031633,22.5561617],[114.2031048,22.5561651],[114.2029352,22.5561188],[114.2028861,22.5561144],[114.2026796,22.5561344],[114.2025521,22.5561184],[114.2023413,22.5561418],[114.2022765,22.5561574],[114.2021768,22.5561713],[114.2021014,22.5561878],[114.2020183,22.5562159],[114.2019949,22.5562166],[114.201919,22.5561995],[114.2018115,22.5561489],[114.201773,22.5561392],[114.2016045,22.5561124],[114.2015773,22.5561044],[114.2015495,22.5560888],[114.2015058,22.5561759],[114.2014773,22.5562138],[114.2014018,22.556289],[114.2013377,22.5563427],[114.2012639,22.5564153],[114.201214,22.5564723],[114.2011803,22.5565241],[114.2011255,22.5566315],[114.2010997,22.5567019],[114.2010892,22.5567967],[114.2010825,22.5570061],[114.2010949,22.5571641],[114.2010788,22.5572244],[114.2010461,22.557277],[114.2008728,22.557499],[114.2008357,22.5575192],[114.2007108,22.5575464],[114.2006582,22.5575463],[114.2005885,22.5575357],[114.2003742,22.5574866],[114.2002586,22.5574553],[114.2001647,22.5574152],[114.1998469,22.557217],[114.1997715,22.5571681],[114.19971,22.5571216],[114.1996898,22.5571007],[114.1996461,22.5570355],[114.1996309,22.5569994],[114.1996109,22.5569312],[114.1995944,22.5568997],[114.1995403,22.5568444],[114.1995166,22.556828],[114.1994233,22.5567848],[114.1993025,22.5567094],[114.1992528,22.5566859],[114.1991765,22.556659],[114.1990092,22.5566303],[114.1989195,22.5566303],[114.1985822,22.556671],[114.1982515,22.5566897],[114.1981321,22.5567032],[114.1980631,22.5566965],[114.1980281,22.5566859],[114.1980055,22.5566327],[114.1978235,22.5565712],[114.1976133,22.5565255],[114.197529,22.5565171],[114.1973183,22.5565925],[114.1970377,22.5567973],[114.1968853,22.5568583],[114.1966024,22.5568999],[114.1963093,22.5569775],[114.1961473,22.5569727],[114.1960881,22.5569082],[114.1960804,22.5567517],[114.1959466,22.556385],[114.1959547,22.5562409],[114.1959491,22.5560326],[114.1959439,22.5558164],[114.1959066,22.555728],[114.1958434,22.5556954],[114.1956479,22.5556973],[114.1954503,22.5557289],[114.1953413,22.5557117],[114.1951944,22.5555694],[114.1949294,22.5554985],[114.1947832,22.5554258],[114.194665,22.5553669],[114.1944674,22.5553364],[114.1942006,22.555327],[114.193239,22.5554547],[114.1927219,22.5556761],[114.1926891,22.555699],[114.192642,22.5557321],[114.192534,22.5557851],[114.1923357,22.5559944],[114.1922419,22.5560399],[114.1919356,22.5559639],[114.1917306,22.5558072],[114.1915384,22.5555463],[114.1914262,22.5554517],[114.191285,22.5553438],[114.1910934,22.5551961],[114.1908942,22.5550222],[114.1907586,22.5548216],[114.1905871,22.5543895],[114.1905191,22.5543494],[114.1901786,22.5543389],[114.1896126,22.5542663],[114.1892876,22.554174],[114.1891064,22.5542482],[114.1889396,22.554358],[114.1887642,22.5545548],[114.1886964,22.5546538],[114.1886113,22.5549349],[114.1884713,22.5551318],[114.1882082,22.5554803],[114.1880047,22.5555869],[114.1877736,22.5556145],[114.1875408,22.5555847],[114.187344,22.5555059],[114.1872636,22.5554071],[114.1871354,22.5548522],[114.1870109,22.5547117],[114.1868893,22.5546347],[114.1866717,22.5546114],[114.1864299,22.5546342],[114.1857804,22.5547967],[114.1855,22.5549054],[114.1851643,22.5550093],[114.1848402,22.5550643],[114.1842872,22.5551957],[114.1839052,22.5552101],[114.1836466,22.5551922],[114.1830678,22.5552197],[114.1826812,22.5552641],[114.1825063,22.5553357],[114.1820227,22.5554198],[114.1817426,22.5554494],[114.1816422,22.5554301],[114.1815496,22.5553914],[114.1812597,22.5551093],[114.1811689,22.5548075],[114.1811735,22.554376],[114.1811348,22.5542506],[114.1809928,22.5541321],[114.1806532,22.5542965],[114.1803301,22.5545164],[114.1795234,22.5549101],[114.1782866,22.5553803],[114.1776754,22.555669],[114.1777927,22.5561736],[114.1776581,22.5569905],[114.1775781,22.5585311],[114.1774465,22.5589542],[114.1772626,22.5591656],[114.1772124,22.559401],[114.1770882,22.5597674],[114.1766971,22.5599],[114.1763412,22.5599557],[114.1761797,22.5599389],[114.1752212,22.5601067],[114.174627,22.559959],[114.1741824,22.5597927],[114.174042,22.5596981],[114.1740255,22.559693],[114.1738274,22.5596321],[114.1732625,22.5595518],[114.1722886,22.5596722],[114.1717897,22.5596531],[114.1713146,22.5596349],[114.1709905,22.5596636],[114.1706417,22.5596449],[114.1704904,22.5596851],[114.1702064,22.5598815],[114.1696754,22.5605222],[114.1694702,22.5608571],[114.1692593,22.5610057],[114.1691384,22.5610478],[114.1689624,22.5611452],[114.1686784,22.5612212],[114.1679221,22.5612541],[114.1673088,22.5612101],[114.1669662,22.5609884],[114.1664161,22.5604004],[114.1663323,22.5601961],[114.166055,22.5598805],[114.1653555,22.5593481],[114.1650106,22.5592343],[114.1645836,22.5591464],[114.1642831,22.5591177],[114.1639034,22.5591483],[114.1634702,22.5592533],[114.1632078,22.5593766],[114.1630825,22.5595773],[114.1630792,22.5596182],[114.1630328,22.5597809],[114.1630325,22.5597817],[114.1630243,22.5597955],[114.1630162,22.5598097],[114.1630041,22.5598313],[114.1629929,22.5598519],[114.1629835,22.5598696],[114.1629758,22.5598846],[114.162967,22.559902],[114.1629609,22.5599145],[114.1629527,22.5599319],[114.1629445,22.55995],[114.1629362,22.559969],[114.162926,22.5599934],[114.1629113,22.5600299],[114.1628735,22.5601267],[114.1628641,22.5601501],[114.1628575,22.5601655],[114.1628504,22.5601813],[114.1628322,22.5602207],[114.162825,22.5602365],[114.1628127,22.5602641],[114.1627819,22.5603348],[114.1627696,22.5603627],[114.1626915,22.5605357],[114.1626715,22.5605805],[114.1625684,22.5608136],[114.162527,22.5609068],[114.1625068,22.5609518],[114.162448,22.5610819],[114.1624365,22.5611065],[114.1624286,22.5611227],[114.1624207,22.5611381],[114.1624126,22.5611535],[114.1623899,22.5611953],[114.1623709,22.5612292],[114.1623535,22.5612588],[114.1623422,22.561277],[114.1623305,22.5612951],[114.1623184,22.561313],[114.1623083,22.5613272],[114.1622978,22.5613415],[114.162284,22.5613593],[114.1622645,22.5613839],[114.1622424,22.5614116],[114.1622287,22.5614283],[114.1622176,22.5614417],[114.1622056,22.5614554],[114.1621939,22.5614687],[114.1621759,22.5614884],[114.1621609,22.5615044],[114.1621457,22.5615203],[114.1621302,22.5615361],[114.1621172,22.5615487],[114.162104,22.5615609],[114.1620639,22.5615969],[114.1620374,22.5616204],[114.1620179,22.5616374],[114.1620047,22.5616486],[114.1619912,22.5616597],[114.1619738,22.5616734],[114.1619526,22.5616896],[114.1619275,22.5617083],[114.1618984,22.5617297],[114.1618727,22.5617485],[114.1618521,22.5617632],[114.161833,22.5617765],[114.16182,22.5617852],[114.1618049,22.5617948],[114.1617858,22.5618065],[114.1617703,22.5618155],[114.1617549,22.5618241],[114.1617357,22.5618342],[114.1617164,22.5618437],[114.1617007,22.5618511],[114.1616841,22.5618582],[114.1616673,22.561865],[114.161646,22.5618731],[114.161629,22.5618792],[114.1616118,22.5618848],[114.1615943,22.56189],[114.1615765,22.5618947],[114.1615541,22.5619002],[114.1615363,22.5619041],[114.1615145,22.5619084],[114.161488,22.5619133],[114.1614703,22.5619163],[114.1614528,22.5619188],[114.1614354,22.5619208],[114.1614137,22.5619228],[114.1614006,22.5619237],[114.161392,22.5619242],[114.1613788,22.5619245],[114.1613659,22.5619244],[114.1613489,22.5619237],[114.1613361,22.5619227],[114.161318,22.5619206],[114.1612996,22.5619181],[114.1612813,22.5619151],[114.1612632,22.5619117],[114.1612402,22.561907],[114.1611989,22.5618979],[114.1611626,22.5618892],[114.1611492,22.5618858],[114.1611357,22.5618821],[114.1611057,22.5618722],[114.1610934,22.5618674],[114.1610812,22.5618624],[114.161065,22.5618555],[114.1610489,22.5618483],[114.1610367,22.5618426],[114.1610207,22.5618349],[114.1610046,22.5618269],[114.1609768,22.5618127],[114.1609492,22.561798],[114.1608532,22.5617457],[114.1607577,22.5616944],[114.1607371,22.5616831],[114.1607123,22.5616693],[114.1604613,22.5615249],[114.16043,22.5615064],[114.1604081,22.5614929],[114.1603976,22.5614861],[114.1603794,22.5614737],[114.1603651,22.5614634],[114.1603509,22.5614529],[114.1603405,22.5614449],[114.1603277,22.5614348],[114.1603151,22.5614244],[114.1603026,22.5614139],[114.1602929,22.5614053],[114.16028,22.5613935],[114.1602642,22.5613786],[114.1602548,22.5613693],[114.1602427,22.5613571],[114.1602309,22.5613446],[114.1602225,22.5613353],[114.1602168,22.5613287],[114.1602059,22.5613153],[114.1601931,22.5612986],[114.1601776,22.5612773],[114.1601622,22.5612553],[114.1601478,22.5612338],[114.1601325,22.5612098],[114.1600805,22.5611254],[114.1600235,22.5610339],[114.159988,22.5609783],[114.1599763,22.5609602],[114.1599642,22.5609422],[114.1599517,22.560924],[114.1599363,22.5609022],[114.1599234,22.5608843],[114.1599127,22.56087],[114.1599022,22.5608565],[114.1598888,22.5608397],[114.1598725,22.56082],[114.1598589,22.5608038],[114.1598504,22.5607941],[114.1598381,22.5607807],[114.1598256,22.5607674],[114.1598096,22.5607509],[114.1597968,22.5607379],[114.1597842,22.5607254],[114.1597682,22.5607099],[114.1597553,22.5606977],[114.159742,22.5606856],[114.1597221,22.5606681],[114.1596213,22.5605821],[114.1596007,22.5605642],[114.1595877,22.5605528],[114.1595724,22.5605388],[114.1595559,22.560523],[114.1595351,22.5605024],[114.1595202,22.5604873],[114.1595054,22.5604715],[114.1594909,22.5604554],[114.159478,22.5604403],[114.1594682,22.5604282],[114.1594601,22.5604176],[114.1594523,22.560407],[114.1593961,22.5603296],[114.1593703,22.5602948],[114.1593626,22.5602842],[114.159353,22.5602701],[114.1593462,22.5602594],[114.1593398,22.5602488],[114.1593229,22.5602199],[114.1593086,22.5601942],[114.1593005,22.5601787],[114.159291,22.5601593],[114.1592802,22.5601359],[114.1592699,22.5601125],[114.1592633,22.5600969],[114.1592571,22.5600815],[114.1592498,22.5600625],[114.1592412,22.5600392],[114.159206,22.5599431],[114.1591697,22.5598413],[114.1591594,22.559813],[114.1591514,22.5597928],[114.1591397,22.5597644],[114.1591299,22.5597417],[114.1591217,22.5597239],[114.1591161,22.5597125],[114.1591103,22.5597012],[114.1591021,22.5596859],[114.1590924,22.5596681],[114.1590778,22.5596424],[114.1590689,22.5596276],[114.1590618,22.5596162],[114.1590547,22.5596053],[114.1590496,22.5595979],[114.1590366,22.5595799],[114.1590176,22.5595548],[114.1590011,22.5595342],[114.15899,22.5595209],[114.1589789,22.5595078],[114.1589705,22.5594981],[114.1589619,22.5594886],[114.1589475,22.5594735],[114.1589284,22.5594546],[114.1589161,22.5594429],[114.1589068,22.5594344],[114.158897,22.5594256],[114.1588842,22.5594146],[114.1588709,22.5594035],[114.1588609,22.5593955],[114.1588506,22.5593876],[114.1588406,22.55938],[114.1588207,22.5593658],[114.1588019,22.559353],[114.1587799,22.5593387],[114.1587563,22.559324],[114.158736,22.5593118],[114.1587156,22.5593],[114.1586953,22.5592885],[114.1586408,22.5592581],[114.158621,22.5592469],[114.158605,22.5592374],[114.1585894,22.5592277],[114.1585742,22.5592177],[114.1585555,22.5592049],[114.1585368,22.5591918],[114.1585185,22.5591785],[114.1585048,22.5591682],[114.1584944,22.5591601],[114.1584845,22.559152],[114.1584712,22.5591408],[114.1584579,22.5591291],[114.1584447,22.5591169],[114.1584318,22.5591045],[114.1584189,22.5590915],[114.1584064,22.5590782],[114.1583912,22.5590615],[114.1583765,22.5590447],[114.1583626,22.5590282],[114.1583519,22.5590152],[114.1583413,22.5590019],[114.1583337,22.5589917],[114.1583259,22.5589809],[114.158316,22.5589663],[114.1583043,22.5589487],[114.1582954,22.5589345],[114.1582852,22.5589173],[114.1582769,22.5589029],[114.1582689,22.5588884],[114.1582611,22.5588735],[114.1582552,22.5588618],[114.1582478,22.5588463],[114.1582406,22.5588306],[114.1582195,22.5587832],[114.1582091,22.5587594],[114.158197,22.5587307],[114.1581268,22.5585621],[114.1581165,22.5585376],[114.1581059,22.5585129],[114.1580366,22.5583556],[114.1579322,22.5581165],[114.1578491,22.5579283],[114.1577608,22.557724],[114.1576777,22.5575332],[114.1576566,22.5574855],[114.1575998,22.5573585],[114.1575852,22.5573253],[114.1575746,22.5573003],[114.1575608,22.557267],[114.1573373,22.5567332],[114.1573149,22.5566815],[114.1572911,22.5566253],[114.1572343,22.5564894],[114.1572216,22.5564587],[114.1572066,22.5564216],[114.1571447,22.5562673],[114.1571301,22.5562304],[114.1571206,22.5562054],[114.1571123,22.5561814],[114.1571007,22.5561457],[114.1570909,22.5561137],[114.1570851,22.5560938],[114.15708,22.5560747],[114.1570601,22.5559959],[114.1570353,22.5558941],[114.1569963,22.5556883],[114.1569801,22.5555981],[114.1569752,22.5555728],[114.1569709,22.5555526],[114.1569672,22.5555374],[114.1569619,22.5555177],[114.1569572,22.5555016],[114.1569523,22.5554859],[114.1569468,22.5554694],[114.1569411,22.5554536],[114.1569351,22.5554378],[114.1569288,22.5554223],[114.1569238,22.5554106],[114.1569185,22.5553987],[114.1569093,22.5553792],[114.1568979,22.5553567],[114.1568922,22.555346],[114.1568846,22.5553322],[114.1568725,22.5553117],[114.1568587,22.5552898],[114.1568516,22.555279],[114.1568443,22.5552682],[114.1568294,22.5552475],[114.156814,22.5552271],[114.1568009,22.5552109],[114.1567927,22.5552011],[114.1567845,22.5551917],[114.156776,22.5551821],[114.1567675,22.555173],[114.1567497,22.5551545],[114.1567376,22.5551423],[114.156728,22.555133],[114.1567185,22.5551241],[114.1567085,22.5551149],[114.1566986,22.5551063],[114.1566922,22.5551008],[114.1566788,22.5550903],[114.1566665,22.5550814],[114.1566598,22.5550768],[114.1566529,22.5550723],[114.1566395,22.5550643],[114.1566257,22.5550568],[114.1566186,22.5550533],[114.1566016,22.5550458],[114.1565939,22.5550427],[114.1565784,22.5550372],[114.1565632,22.5550325],[114.1565555,22.5550304],[114.1565475,22.5550285],[114.1565394,22.5550267],[114.1565312,22.5550251],[114.1565223,22.5550236],[114.1565144,22.5550224],[114.1565028,22.555021],[114.1564942,22.5550202],[114.156478,22.5550192],[114.1564622,22.5550189],[114.1564536,22.555019],[114.156445,22.5550194],[114.156432,22.5550203],[114.1564164,22.5550221],[114.1564047,22.5550239],[114.1563885,22.555027],[114.1563762,22.5550298],[114.1563617,22.5550339],[114.15636,22.5550344],[114.1563475,22.5550384],[114.1563343,22.5550434],[114.1563241,22.5550476],[114.1563131,22.5550525],[114.1563016,22.5550582],[114.1562904,22.5550642],[114.1562796,22.5550703],[114.1562687,22.5550767],[114.1562288,22.5551012],[114.1562133,22.5551105],[114.1562024,22.5551167],[114.156195,22.5551208],[114.1561806,22.5551282],[114.1561701,22.5551331],[114.1561598,22.5551375],[114.156152,22.5551407],[114.15614,22.5551451],[114.1561316,22.555148],[114.156119,22.5551517],[114.1561108,22.555154],[114.1560985,22.5551569],[114.1560871,22.5551592],[114.1560723,22.5551617],[114.1560573,22.5551636],[114.1560455,22.5551646],[114.1560305,22.5551654],[114.1560196,22.5551655],[114.1560038,22.5551652],[114.1559914,22.5551644],[114.1559796,22.5551633],[114.1559667,22.5551616],[114.155952,22.555159],[114.1559415,22.5551566],[114.1559298,22.5551536],[114.1559183,22.55515],[114.1559059,22.5551458],[114.1558939,22.5551413],[114.155882,22.5551366],[114.15587,22.5551316],[114.1558573,22.555126],[114.1558451,22.5551204],[114.1557574,22.5550782],[114.155715,22.5550581],[114.1555368,22.5549748],[114.1553857,22.5549044],[114.1553443,22.5548848],[114.1553245,22.5548749],[114.1553008,22.5548629],[114.1552826,22.5548533],[114.1552687,22.5548456],[114.1552541,22.5548371],[114.1552403,22.5548286],[114.155226,22.5548194],[114.1552128,22.5548105],[114.155203,22.5548036],[114.1551922,22.5547957],[114.155171,22.5547796],[114.1551504,22.5547631],[114.1551405,22.5547548],[114.1551307,22.5547463],[114.1551147,22.554732],[114.1551053,22.5547231],[114.1550991,22.554717],[114.1550907,22.5547084],[114.1550847,22.5547018],[114.1550787,22.5546952],[114.15507,22.5546852],[114.1550654,22.5546795],[114.1550557,22.5546678],[114.1550418,22.5546502],[114.1550299,22.5546343],[114.1550164,22.5546154],[114.1550022,22.554595],[114.1549888,22.5545747],[114.1549437,22.5545033],[114.1549262,22.5544761],[114.1549157,22.5544601],[114.154906,22.5544463],[114.1548986,22.5544366],[114.1548905,22.554427],[114.1548823,22.5544182],[114.1548763,22.5544123],[114.1548701,22.5544068],[114.1548637,22.5544016],[114.1548571,22.5543966],[114.1548502,22.5543919],[114.1548425,22.5543871],[114.1548347,22.5543827],[114.1548282,22.5543793],[114.1548214,22.5543762],[114.1548146,22.5543733],[114.1548077,22.5543706],[114.1547982,22.5543676],[114.1547901,22.5543653],[114.1547818,22.5543635],[114.1547735,22.554362],[114.1547644,22.5543608],[114.1547558,22.5543601],[114.1547433,22.5543597],[114.1547328,22.55436],[114.1547225,22.5543607],[114.154713,22.5543617],[114.154702,22.5543635],[114.1546941,22.5543651],[114.1546824,22.554368],[114.1546744,22.5543702],[114.1546667,22.5543726],[114.1546591,22.5543752],[114.1546479,22.5543794],[114.1546282,22.5543875],[114.1545865,22.5544057],[114.1545673,22.5544137],[114.1545562,22.5544181],[114.1545459,22.554422],[114.1545349,22.5544259],[114.1545227,22.5544299],[114.1545104,22.5544338],[114.154498,22.5544373],[114.1544848,22.5544407],[114.1544756,22.5544428],[114.1544617,22.5544458],[114.1544525,22.5544475],[114.1544385,22.5544498],[114.1544245,22.5544516],[114.1544011,22.5544541],[114.154378,22.5544559],[114.1543555,22.5544572],[114.1543334,22.554458],[114.1542911,22.5544587],[114.154167,22.5544598],[114.1541247,22.55446],[114.1540165,22.5544601],[114.1539717,22.5544606],[114.1539456,22.5544612],[114.1539179,22.5544622],[114.1538802,22.5544642],[114.1538426,22.5544665],[114.1538238,22.5544679],[114.1538004,22.5544698],[114.1537393,22.5544755],[114.1537018,22.5544794],[114.1536579,22.5544848],[114.1535968,22.5544929],[114.1535733,22.5544963],[114.1535499,22.5544999],[114.1535311,22.554503],[114.1535081,22.554507],[114.1534863,22.5545112],[114.153468,22.5545148],[114.1534417,22.5545206],[114.1534127,22.5545274],[114.1533836,22.5545348],[114.1533576,22.5545418],[114.1533278,22.5545506],[114.1532848,22.5545637],[114.1532278,22.5545815],[114.1531895,22.5545938],[114.1531766,22.5545982],[114.1531601,22.554604],[114.1531264,22.5546164],[114.1529763,22.5546733],[114.1528757,22.5547116],[114.1528453,22.5547226],[114.1528322,22.5547271],[114.1528166,22.5547322],[114.1528055,22.5547356],[114.1527925,22.5547394],[114.1527383,22.5547536],[114.1527207,22.5547585],[114.1527031,22.5547638],[114.1526899,22.554768],[114.1526769,22.5547723],[114.1526155,22.5547938],[114.1525768,22.5548069],[114.1525525,22.5548147],[114.1525241,22.554823],[114.1525079,22.5548274],[114.1524953,22.5548306],[114.1524784,22.5548346],[114.1524658,22.5548373],[114.1524529,22.5548397],[114.1524438,22.5548412],[114.1524303,22.5548431],[114.1524166,22.5548447],[114.1523983,22.5548464],[114.1523847,22.5548471],[114.1523711,22.5548475],[114.1523528,22.5548473],[114.1523391,22.5548468],[114.1523218,22.5548455],[114.1523049,22.5548437],[114.1522879,22.5548412],[114.1522703,22.554838],[114.1522569,22.5548351],[114.1522434,22.5548318],[114.1522261,22.5548269],[114.1522093,22.5548214],[114.1521963,22.5548167],[114.1521839,22.5548118],[114.1521678,22.5548047],[114.1521532,22.5547977],[114.1521391,22.5547904],[114.1521251,22.5547827],[114.1521098,22.5547736],[114.1520983,22.5547663],[114.1520845,22.5547569],[114.1520722,22.5547476],[114.152063,22.5547402],[114.1520543,22.5547325],[114.1520434,22.5547219],[114.1520327,22.5547105],[114.1520215,22.5546979],[114.1520108,22.554685],[114.1520006,22.554672],[114.1519909,22.5546587],[114.1519837,22.5546477],[114.1519794,22.5546404],[114.1519728,22.5546289],[114.1519652,22.5546085],[114.1519156,22.5544592],[114.1519061,22.554434],[114.1519032,22.5544256],[114.1518998,22.5544175],[114.1518943,22.5544043],[114.1518888,22.5543927],[114.1518838,22.5543792],[114.1518797,22.5543618],[114.1518766,22.55433],[114.1518739,22.5542492],[114.1518717,22.5542029],[114.1518669,22.5541546],[114.1518582,22.5541145],[114.1518506,22.5540755],[114.1518505,22.5540754],[114.1518404,22.5540265],[114.1518247,22.5539467],[114.1517584,22.5536117],[114.1517494,22.5535676],[114.1517441,22.5535428],[114.1517375,22.5535141],[114.1517049,22.5533773],[114.1516935,22.5533288],[114.1516708,22.5532269],[114.1516516,22.5531402],[114.1516367,22.5530708],[114.1516301,22.5530385],[114.1516245,22.5530103],[114.1516206,22.5529896],[114.151617,22.5529693],[114.1516139,22.55295],[114.1516117,22.5529342],[114.1516103,22.5529225],[114.1516092,22.5529093],[114.1516084,22.5528962],[114.1516075,22.5528786],[114.1516069,22.552861],[114.1516064,22.5528345],[114.1516059,22.5528035],[114.1516058,22.5527814],[114.151606,22.5527642],[114.1516063,22.5527474],[114.151608,22.5526961],[114.1516099,22.5526574],[114.1516122,22.5526199],[114.151615,22.5525866],[114.1516164,22.5525737],[114.1516184,22.5525562],[114.1516224,22.5525254],[114.1516263,22.5524963],[114.1516454,22.552352],[114.1516666,22.5521805],[114.1516707,22.5521462],[114.1516733,22.5521209],[114.1516744,22.5521045],[114.1516751,22.5520845],[114.151675,22.5520641],[114.1516748,22.5520516],[114.1516742,22.5520346],[114.1516727,22.5520051],[114.1516709,22.5519803],[114.1516682,22.5519519],[114.1516654,22.5519277],[114.1516619,22.5519019],[114.1516571,22.5518721],[114.1516524,22.5518463],[114.1516472,22.5518209],[114.1516408,22.5517925],[114.1516348,22.5517683],[114.1516281,22.5517443],[114.1516221,22.5517251],[114.1516142,22.5517023],[114.1516052,22.5516784],[114.1515956,22.5516544],[114.1515878,22.5516358],[114.1515781,22.5516137],[114.1515676,22.551591],[114.1515585,22.5515721],[114.1515485,22.5515522],[114.1515361,22.5515286],[114.1515253,22.551509],[114.151513,22.5514875],[114.1515032,22.5514711],[114.1514946,22.5514576],[114.1514855,22.5514437],[114.1514762,22.5514303],[114.1514659,22.551416],[114.1514526,22.5513981],[114.1514395,22.5513812],[114.1514262,22.5513646],[114.1514098,22.5513448],[114.1513964,22.5513293],[114.1513798,22.5513106],[114.1513623,22.5512917],[114.1513471,22.5512759],[114.151332,22.5512607],[114.1513159,22.551245],[114.1512998,22.5512299],[114.1512835,22.5512151],[114.1512673,22.5512009],[114.1512479,22.5511844],[114.1512316,22.5511711],[114.1512116,22.5511553],[114.1511946,22.5511424],[114.151177,22.5511296],[114.1511586,22.5511167],[114.1511435,22.5511068],[114.1511285,22.5510973],[114.1511095,22.5510859],[114.1510906,22.5510749],[114.1510678,22.551062],[114.1510422,22.5510478],[114.1510195,22.5510356],[114.1510002,22.5510255],[114.1509836,22.5510172],[114.1509677,22.5510096],[114.1509518,22.5510023],[114.150936,22.5509953],[114.1509157,22.5509867],[114.1508988,22.5509798],[114.1508816,22.5509731],[114.150865,22.5509669],[114.1508448,22.5509596],[114.1508281,22.5509539],[114.1508111,22.5509484],[114.1507941,22.550943],[114.1507674,22.5509353],[114.1507006,22.5509168],[114.1506029,22.5508901],[114.1505725,22.550882],[114.1505514,22.5508766],[114.1505259,22.5508703],[114.1504604,22.5508548],[114.1504307,22.5508476],[114.1504013,22.5508399],[114.1503847,22.5508353],[114.1503724,22.5508317],[114.1503554,22.5508264],[114.1503384,22.5508207],[114.150317,22.5508131],[114.1503,22.5508067],[114.1502811,22.5507991],[114.150262,22.5507909],[114.1502462,22.5507839],[114.1502271,22.5507749],[114.1502044,22.5507634],[114.1501931,22.5507574],[114.1501819,22.5507512],[114.1501745,22.5507469],[114.1501637,22.5507404],[114.1501464,22.5507293],[114.1501363,22.5507224],[114.1501266,22.5507156],[114.1501137,22.5507061],[114.1501038,22.5506987],[114.150091,22.5506888],[114.1500784,22.5506787],[114.1500687,22.5506707],[114.1500586,22.5506621],[114.1500389,22.5506448],[114.1500267,22.5506335],[114.1500178,22.5506251],[114.1499999,22.5506073],[114.1499912,22.5505982],[114.1499828,22.5505891],[114.1499746,22.55058],[114.1499665,22.5505706],[114.1499521,22.5505528],[114.1499397,22.5505365],[114.1499232,22.5505134],[114.1499139,22.5504998],[114.1499029,22.5504836],[114.1498941,22.5504701],[114.1498851,22.550456],[114.1498782,22.5504449],[114.1498715,22.5504335],[114.1498671,22.5504256],[114.1498605,22.5504131],[114.1498503,22.5503929],[114.1498403,22.5503724],[114.1498307,22.5503519],[114.1498193,22.5503273],[114.1498101,22.5503066],[114.1497993,22.5502818],[114.1497923,22.5502652],[114.1497857,22.5502484],[114.1497796,22.5502315],[114.1497754,22.5502186],[114.1497703,22.5502014],[114.1497656,22.5501841],[114.1497097,22.5499717],[114.1497022,22.5499418],[114.1496994,22.5499291],[114.1496967,22.5499164],[114.1496936,22.5498993],[114.1496907,22.5498822],[114.1496832,22.5498347],[114.1496324,22.5495009],[114.1496249,22.5494113],[114.1496208,22.5493671],[114.1496199,22.5493498],[114.1496184,22.5493279],[114.1496162,22.5493017],[114.1496044,22.5491667],[114.1495976,22.5490862],[114.149595,22.5490625],[114.1495881,22.5490072],[114.1495867,22.5489935],[114.1495857,22.548981],[114.1495837,22.5489514],[114.1495797,22.5488802],[114.1495747,22.5488027],[114.1495736,22.5487784],[114.149573,22.5487547],[114.149573,22.5487379],[114.1495734,22.548721],[114.1495741,22.5487033],[114.1495752,22.548686],[114.1495766,22.5486691],[114.1495787,22.5486489],[114.1495806,22.5486328],[114.1495835,22.5486128],[114.1495868,22.548592],[114.1495906,22.5485709],[114.1495971,22.5485376],[114.149602,22.5485138],[114.1496066,22.5484931],[114.1496116,22.5484726],[114.1496157,22.5484566],[114.1496214,22.5484363],[114.1496261,22.5484208],[114.1496321,22.5484021],[114.1496384,22.5483835],[114.1496441,22.548368],[114.1496518,22.548348],[114.1496581,22.5483324],[114.1496663,22.5483133],[114.1496731,22.5482984],[114.1496806,22.5482828],[114.1496885,22.5482673],[114.1496967,22.5482523],[114.1497031,22.5482412],[114.1497121,22.5482264],[114.1497214,22.5482117],[114.1497309,22.5481976],[114.1497385,22.5481869],[114.1497488,22.5481729],[114.1497568,22.5481625],[114.1497649,22.5481526],[114.149773,22.5481431],[114.1497816,22.5481335],[114.1497903,22.5481244],[114.1497992,22.5481155],[114.1498084,22.5481068],[114.1498175,22.5480984],[114.14983,22.5480875],[114.1498428,22.5480768],[114.1498558,22.5480664],[114.1498688,22.5480566],[114.149879,22.5480491],[114.14989,22.5480414],[114.1499039,22.548032],[114.1499177,22.5480231],[114.149936,22.5480116],[114.149955,22.5480001],[114.149974,22.547989],[114.1499931,22.5479781],[114.1500128,22.5479672],[114.1500363,22.5479547],[114.1500561,22.5479445],[114.150077,22.547934],[114.150098,22.5479239],[114.1501144,22.5479162],[114.1501348,22.5479072],[114.1501513,22.5479003],[114.1501638,22.5478954],[114.1501801,22.5478894],[114.1501971,22.5478837],[114.1502191,22.5478768],[114.1502327,22.5478728],[114.1502418,22.5478703],[114.1502506,22.5478681],[114.1502638,22.547865],[114.150277,22.5478622],[114.1502903,22.5478596],[114.1503035,22.5478572],[114.1503123,22.5478559],[114.1503346,22.5478528],[114.1503482,22.5478513],[114.1503615,22.54785],[114.1503751,22.547849],[114.1503844,22.5478484],[114.150407,22.5478476],[114.1504207,22.5478474],[114.1504335,22.5478475],[114.1504463,22.5478478],[114.1504594,22.5478483],[114.1504811,22.5478497],[114.1504903,22.5478505],[114.1505041,22.5478519],[114.1505265,22.5478547],[114.1505481,22.5478582],[114.1505604,22.5478604],[114.1505728,22.5478629],[114.1505932,22.5478675],[114.1506065,22.5478709],[114.1506155,22.5478733],[114.1506286,22.547877],[114.1506411,22.5478809],[114.150654,22.547885],[114.1506673,22.5478894],[114.1506978,22.5479],[114.1508943,22.5479697],[114.151111,22.5480461],[114.1511558,22.5480614],[114.1513163,22.5481158],[114.1513432,22.5481244],[114.1513606,22.5481295],[114.1513735,22.5481331],[114.1513868,22.5481365],[114.1513956,22.5481386],[114.1514086,22.5481413],[114.1514175,22.5481429],[114.1514394,22.548145],[114.1514531,22.5481452],[114.1514664,22.5481446],[114.1514754,22.5481438],[114.1514841,22.5481425],[114.1514928,22.5481408],[114.1515017,22.5481387],[114.1515152,22.5481349],[114.1515284,22.5481305],[114.1515456,22.5481242],[114.1515618,22.5481175],[114.1515804,22.5481091],[114.151597,22.5481009],[114.1516127,22.5480925],[114.15162,22.5480883],[114.1516272,22.5480839],[114.1516342,22.5480795],[114.1516411,22.5480748],[114.1516478,22.5480699],[114.1516542,22.5480648],[114.1516605,22.5480594],[114.1516684,22.5480516],[114.1516737,22.5480458],[114.151681,22.5480369],[114.1516878,22.5480279],[114.1516947,22.5480181],[114.1517062,22.5480007],[114.1517218,22.5479759],[114.1517705,22.5478972],[114.1518285,22.5478038],[114.1518392,22.5477863],[114.1518474,22.5477726],[114.1518533,22.5477622],[114.1518597,22.5477507],[114.1518656,22.5477395],[114.1518712,22.5477285],[114.1518766,22.5477174],[114.151882,22.5477059],[114.1518887,22.5476907],[114.1518936,22.5476794],[114.1519026,22.5476569],[114.1519109,22.5476345],[114.1519196,22.5476086],[114.1519267,22.5475851],[114.151931,22.5475696],[114.1519342,22.5475574],[114.1519376,22.547543],[114.151941,22.5475278],[114.1519442,22.5475119],[114.1519472,22.5474953],[114.15195,22.5474786],[114.1519523,22.5474632],[114.1519542,22.5474476],[114.1519558,22.5474325],[114.1519572,22.5474177],[114.1519583,22.5474019],[114.1519591,22.547386],[114.1519595,22.5473738],[114.1519598,22.5473583],[114.1519598,22.5473428],[114.1519595,22.5473274],[114.1519589,22.5473122],[114.1519581,22.547297],[114.1519569,22.5472806],[114.1519554,22.5472645],[114.1519536,22.5472487],[114.1519516,22.5472328],[114.1519498,22.547221],[114.1519472,22.5472052],[114.1519443,22.5471895],[114.1519419,22.5471775],[114.1519384,22.5471615],[114.1519346,22.5471457],[114.1519307,22.5471301],[114.1519209,22.5470934],[114.1519127,22.5470639],[114.1519045,22.5470367],[114.1518972,22.5470139],[114.1518883,22.5469882],[114.1518794,22.5469642],[114.1518695,22.5469397],[114.1518596,22.5469164],[114.1518491,22.5468935],[114.1518377,22.5468699],[114.1518264,22.546848],[114.1518127,22.5468228],[114.1518002,22.5468012],[114.1517873,22.5467798],[114.1517729,22.5467572],[114.1517573,22.5467341],[114.1517431,22.546714],[114.1517292,22.5466956],[114.1517222,22.5466868],[114.1517141,22.5466769],[114.1516919,22.5466511],[114.1516659,22.5466218],[114.1516292,22.5465815],[114.1515892,22.5465385],[114.1515586,22.5465063],[114.1515409,22.5464882],[114.1515286,22.5464758],[114.1515072,22.5464551],[114.1514881,22.5464374],[114.151468,22.5464196],[114.151448,22.5464026],[114.1514282,22.5463866],[114.151411,22.5463734],[114.1514036,22.546368],[114.1513941,22.5463613],[114.1513864,22.5463563],[114.1513789,22.5463516],[114.1513682,22.5463452],[114.1513527,22.5463367],[114.1513411,22.5463308],[114.1513301,22.5463257],[114.1513116,22.5463181],[114.1513005,22.5463141],[114.1512885,22.5463101],[114.1512763,22.5463065],[114.1512649,22.5463035],[114.1512527,22.5463006],[114.1512379,22.5462975],[114.1512268,22.5462956],[114.1512148,22.5462939],[114.1512033,22.5462926],[114.1511882,22.5462913],[114.1511577,22.5462903],[114.1511322,22.5462912],[114.1511194,22.5462921],[114.1511112,22.5462929],[114.1510925,22.5462951],[114.1510738,22.546298],[114.1510535,22.5463015],[114.1509954,22.5463121],[114.1509792,22.5463148],[114.150966,22.5463168],[114.1509482,22.5463191],[114.1509266,22.5463212],[114.1509054,22.5463228],[114.1508886,22.5463235],[114.1508679,22.5463239],[114.1508548,22.5463238],[114.1508456,22.5463236],[114.1508329,22.5463231],[114.1508214,22.5463224],[114.1508086,22.5463215],[114.1507964,22.5463205],[114.1507764,22.5463182],[114.1507633,22.5463164],[114.1507545,22.546315],[114.150734,22.5463113],[114.1507135,22.5463069],[114.1507016,22.5463042],[114.1506882,22.5463008],[114.1506751,22.5462974],[114.1506622,22.5462937],[114.1506362,22.5462858],[114.1506235,22.5462817],[114.1506114,22.5462775],[114.1505989,22.546273],[114.150586,22.5462681],[114.1505735,22.5462632],[114.150561,22.546258],[114.1505448,22.546251],[114.1505329,22.5462456],[114.1505211,22.5462401],[114.1505097,22.5462345],[114.1504875,22.5462231],[114.1504761,22.5462169],[114.150464,22.5462101],[114.1504441,22.5461981],[114.1504186,22.5461819],[114.1504003,22.5461697],[114.1503831,22.5461581],[114.1503693,22.5461485],[114.1503589,22.5461411],[114.1503485,22.5461334],[114.1503418,22.5461282],[114.1503321,22.5461203],[114.1503259,22.5461147],[114.1503167,22.5461062],[114.1503049,22.5460942],[114.1502934,22.5460817],[114.1502826,22.5460691],[114.1502719,22.5460561],[114.1502606,22.5460415],[114.1502472,22.5460236],[114.1502316,22.5460021],[114.1502215,22.5459878],[114.1502092,22.5459699],[114.1501804,22.5459273],[114.1500977,22.5458032],[114.1500695,22.5457606],[114.1500303,22.5457007],[114.1500119,22.5456732],[114.1499935,22.5456469],[114.1499683,22.5456116],[114.1499364,22.5455675],[114.1499048,22.5455243],[114.1498876,22.5455011],[114.1498682,22.5454756],[114.1498441,22.5454447],[114.1498035,22.5453928],[114.1497843,22.5453685],[114.1497602,22.5453386],[114.1497378,22.545311],[114.1497184,22.5452875],[114.1496896,22.545253],[114.1496498,22.5452062],[114.1496132,22.5451637],[114.149584,22.5451304],[114.1495563,22.5450996],[114.1495094,22.5450482],[114.1494782,22.5450145],[114.1494531,22.5449878],[114.1494343,22.5449682],[114.149415,22.5449486],[114.1493333,22.5448668],[114.149301,22.5448351],[114.1491436,22.5446811],[114.1491207,22.5446585],[114.1491012,22.544639],[114.1490664,22.5446036],[114.1490367,22.5445726],[114.1490052,22.5445389],[114.1489716,22.5445022],[114.1489557,22.5444845],[114.1489398,22.5444665],[114.1489269,22.5444515],[114.1489138,22.544436],[114.1489003,22.5444196],[114.148884,22.5443995],[114.1488705,22.5443825],[114.1488547,22.5443622],[114.1488389,22.5443416],[114.1488255,22.5443239],[114.1488133,22.5443074],[114.1487995,22.5442885],[114.1487878,22.5442721],[114.1487739,22.5442521],[114.1487608,22.544233],[114.1487469,22.5442123],[114.1487179,22.544168],[114.1486941,22.5441303],[114.1486783,22.5441047],[114.1486629,22.5440794],[114.1486499,22.5440573],[114.1486391,22.5440386],[114.148629,22.5440203],[114.1486191,22.5440019],[114.1486036,22.5439721],[114.1485879,22.5439416],[114.1485782,22.5439224],[114.1485669,22.5438991],[114.1485595,22.5438836],[114.148552,22.5438674],[114.1485338,22.543826],[114.1484675,22.5436723],[114.148389,22.5434885],[114.1483637,22.5434281],[114.148316,22.5433128],[114.1483042,22.5432836],[114.1482978,22.5432669],[114.1482927,22.5432522],[114.1482883,22.5432377],[114.1482842,22.5432223],[114.1482805,22.5432063],[114.1482774,22.5431903],[114.1482751,22.5431756],[114.1482731,22.5431598],[114.1482718,22.5431451],[114.1482708,22.5431303],[114.1482704,22.5431154],[114.1482704,22.5431006],[114.1482709,22.543085],[114.1482716,22.5430729],[114.1482731,22.543057],[114.148275,22.5430417],[114.1482768,22.5430301],[114.1482798,22.5430146],[114.1482833,22.542999],[114.1482863,22.5429876],[114.1482903,22.5429735],[114.1482938,22.5429626],[114.148299,22.5429475],[114.1483052,22.542931],[114.1483101,22.5429185],[114.148315,22.5429068],[114.1483247,22.5428845],[114.1483357,22.5428609],[114.1483501,22.5428317],[114.1483884,22.5427573],[114.1484467,22.5426448],[114.1485461,22.5424534],[114.1485578,22.5424304],[114.1485654,22.5424149],[114.1485724,22.5423995],[114.1485783,22.5423853],[114.148584,22.5423704],[114.1485878,22.5423593],[114.1485923,22.5423443],[114.1485955,22.5423325],[114.1485982,22.5423214],[114.1486013,22.5423067],[114.1486034,22.5422949],[114.148605,22.5422838],[114.1486064,22.5422718],[114.1486077,22.5422578],[114.1486084,22.5422458],[114.1486087,22.5422354],[114.1486088,22.5422238],[114.1486085,22.5422122],[114.1486079,22.5422],[114.148607,22.5421888],[114.1486057,22.5421768],[114.1486042,22.5421655],[114.1486021,22.5421526],[114.1485997,22.5421401],[114.1485971,22.5421287],[114.1485943,22.5421176],[114.1485911,22.5421061],[114.1485865,22.5420917],[114.1485827,22.5420808],[114.1485782,22.542069],[114.1485735,22.5420577],[114.1485688,22.542047],[114.1485632,22.5420351],[114.1485574,22.5420238],[114.1485515,22.5420131],[114.1485453,22.5420025],[114.1485392,22.541993],[114.1485327,22.5419832],[114.1485251,22.5419727],[114.1485199,22.5419659],[114.1485127,22.541957],[114.1485046,22.5419477],[114.1484961,22.5419385],[114.1484869,22.5419292],[114.1484777,22.5419206],[114.1484709,22.5419145],[114.1484617,22.5419068],[114.148453,22.5419],[114.1484428,22.5418925],[114.1484327,22.5418856],[114.1484217,22.5418786],[114.148414,22.541874],[114.1484035,22.5418681],[114.1483924,22.5418624],[114.1483848,22.5418588],[114.148373,22.5418536],[114.1483619,22.5418492],[114.1483456,22.5418437],[114.1483298,22.5418394],[114.1483174,22.5418365],[114.1483004,22.541833],[114.1482743,22.5418281],[114.1481609,22.5418077],[114.1481155,22.5417997],[114.1480635,22.5417922],[114.1479398,22.5417762],[114.1479065,22.5417718],[114.1478828,22.5417683],[114.1478528,22.541763],[114.1478357,22.5417595],[114.1477486,22.5417403],[114.1477349,22.5417371],[114.1477211,22.5417337],[114.1477004,22.5417281],[114.1476798,22.5417218],[114.1476691,22.5417183],[114.147658,22.5417144],[114.1476465,22.5417101],[114.1476194,22.5416988],[114.1476034,22.5416916],[114.1475829,22.541682],[114.1473668,22.54158],[114.1473382,22.5415668],[114.1473176,22.5415577],[114.1472936,22.5415478],[114.1472849,22.5415444],[114.1472726,22.5415398],[114.1472527,22.5415331],[114.1472425,22.54153],[114.1472313,22.5415268],[114.1472229,22.5415246],[114.1472104,22.5415215],[114.1471981,22.5415187],[114.1471853,22.5415161],[114.147165,22.5415125],[114.1471527,22.5415107],[114.1471404,22.5415092],[114.1471239,22.5415073],[114.1471034,22.5415054],[114.1470029,22.5414975],[114.1469637,22.5414941],[114.1469473,22.5414924],[114.1469338,22.5414909],[114.146899,22.5414864],[114.1468457,22.5414786],[114.1468138,22.5414736],[114.1467869,22.5414692],[114.1467646,22.5414654],[114.1467469,22.5414622],[114.1467297,22.5414589],[114.1467136,22.5414555],[114.146689,22.5414498],[114.1466629,22.5414432],[114.146489,22.5413971],[114.146428,22.5413807],[114.1461205,22.5412973],[114.1459928,22.5412626],[114.1459541,22.5412522],[114.1459248,22.5412446],[114.1458965,22.5412377],[114.1458677,22.541231],[114.1458372,22.5412244],[114.1457958,22.541216],[114.1457771,22.5412125],[114.1457571,22.541209],[114.1457378,22.5412057],[114.1457158,22.5412022],[114.1456931,22.5411988],[114.1456721,22.5411959],[114.145651,22.5411931],[114.145629,22.5411904],[114.1456119,22.5411885],[114.1455894,22.5411862],[114.1455548,22.5411832],[114.1455158,22.5411806],[114.1454884,22.5411791],[114.1454553,22.5411775],[114.1453406,22.5411723],[114.1453023,22.5411706],[114.1452399,22.5411686],[114.1451195,22.5411653],[114.1450604,22.5411638],[114.1449897,22.5411626],[114.1448814,22.5411613],[114.1447922,22.5411599],[114.1447647,22.5411598],[114.1447418,22.54116],[114.1447233,22.5411605],[114.1447095,22.5411611],[114.1446956,22.5411619],[114.1446815,22.541163],[114.1446675,22.5411644],[114.1446536,22.541166],[114.1446406,22.5411678],[114.1446293,22.5411698],[114.1446176,22.5411721],[114.1446054,22.5411748],[114.1445929,22.541178],[114.144581,22.5411814],[114.1445695,22.541185],[114.1445581,22.5411888],[114.144546,22.5411933],[114.1445342,22.5411981],[114.1445226,22.5412032],[114.1445075,22.5412104],[114.1444963,22.5412162],[114.1444854,22.5412223],[114.1444761,22.5412279],[114.1444658,22.5412346],[114.1444556,22.5412416],[114.1444489,22.5412466],[114.144439,22.5412543],[114.1444297,22.5412621],[114.1444204,22.5412702],[114.1444116,22.5412786],[114.1444031,22.5412872],[114.1443975,22.5412932],[114.1443893,22.5413024],[114.1443812,22.5413122],[114.1443731,22.5413227],[114.1443681,22.5413298],[114.1443635,22.5413365],[114.1443547,22.5413503],[114.1443505,22.5413573],[114.1443465,22.5413644],[114.1443396,22.5413779],[114.1443348,22.5413882],[114.1443303,22.5413992],[114.1443246,22.5414146],[114.144319,22.5414309],[114.1443137,22.5414474],[114.1443086,22.5414641],[114.1443036,22.5414811],[114.1442673,22.5416124],[114.1442422,22.5417021],[114.1442338,22.5417306],[114.1442298,22.5417433],[114.1442256,22.5417556],[114.1442168,22.5417801],[114.1442122,22.5417919],[114.1442074,22.5418036],[114.144204,22.5418115],[114.1441985,22.5418234],[114.144189,22.541843],[114.1441753,22.5418704],[114.1441615,22.5418977],[114.1441532,22.5419134],[114.1441468,22.5419249],[114.1441423,22.5419325],[114.1441375,22.5419399],[114.1441304,22.5419496],[114.1441233,22.5419581],[114.1441147,22.5419671],[114.1441052,22.5419759],[114.144098,22.541982],[114.1440881,22.5419897],[114.1440745,22.5419994],[114.144068,22.5420036],[114.1440618,22.5420074],[114.1440512,22.5420134],[114.1440437,22.5420175],[114.1440322,22.5420231],[114.1440243,22.5420267],[114.1440166,22.54203],[114.1440091,22.542033],[114.1439975,22.5420372],[114.143986,22.5420409],[114.1439783,22.5420431],[114.1439703,22.5420452],[114.1439585,22.542048],[114.1439501,22.5420496],[114.1439418,22.5420511],[114.1439335,22.5420523],[114.1439251,22.5420533],[114.1439163,22.5420541],[114.1439033,22.5420549],[114.1438827,22.5420555],[114.1438594,22.5420558],[114.1436539,22.5420565],[114.1432481,22.5420553],[114.1431894,22.542055],[114.1431064,22.5420542],[114.1428285,22.5420518],[114.1427506,22.5420361],[114.1426797,22.5420097],[114.1426097,22.5419885],[114.1422,22.5419142],[114.1421747,22.5419106],[114.1421471,22.5419164],[114.1421202,22.5419289],[114.142097,22.5419439],[114.1420481,22.5419893],[114.1419945,22.5420629],[114.1419386,22.5421538],[114.14189,22.54222],[114.1418689,22.5422454],[114.141822,22.5423017],[114.1417541,22.5423834],[114.1416424,22.5425172],[114.1415303,22.5426508],[114.1414963,22.5426842],[114.1414573,22.5427126],[114.1413705,22.5427621],[114.1413163,22.5427909],[114.141261,22.5428157],[114.1412231,22.5428279],[114.1411707,22.5428364],[114.1410788,22.5428386],[114.1409869,22.5428363],[114.1408191,22.5428287],[114.1406513,22.5428214],[114.1404556,22.5428175],[114.1402598,22.5428213],[114.1401831,22.542828],[114.1401071,22.5428401],[114.1399561,22.5428732],[114.1398726,22.5428927],[114.1397913,22.5429171],[114.1397404,22.54294],[114.1395964,22.5430179],[114.1394527,22.5430959],[114.1392889,22.5431851],[114.139125,22.5432741],[114.1390385,22.5433174],[114.1389492,22.5433557],[114.1387654,22.5434226],[114.1385872,22.5434757],[114.1384058,22.5435191],[114.1382467,22.5435504],[114.1380862,22.543571],[114.1380004,22.5435758],[114.1379145,22.5435766],[114.1377426,22.5435709],[114.1376373,22.5435648],[114.1375325,22.5435537],[114.1374629,22.5435411],[114.1373414,22.5435081],[114.1372232,22.5434668],[114.1370745,22.5434093],[114.1369276,22.5433479],[114.1368293,22.5433035],[114.1367359,22.5432513],[114.1365345,22.5431145],[114.1364937,22.5430868],[114.1363562,22.5429927],[114.1361119,22.5428089],[114.1357163,22.5424953],[114.1353285,22.5422105],[114.1348189,22.5418826],[114.1347387,22.5418321],[114.1346234,22.5417686],[114.1345027,22.5417147],[114.1344191,22.5416835],[114.1343287,22.5416548],[114.1342375,22.5416308],[114.1340516,22.5415943],[114.133904,22.5415746],[114.133756,22.5415645],[114.1336298,22.5415622],[114.1335036,22.5415678],[114.1334204,22.5415792],[114.1332483,22.5416121],[114.1330768,22.541646],[114.1322144,22.5418204],[114.1313508,22.5419946],[114.1311915,22.5420183],[114.1310311,22.5420316],[114.1309353,22.5420335],[114.1308393,22.5420264],[114.1307754,22.5420167],[114.1306419,22.5419849],[114.1305118,22.5419424],[114.1303814,22.5418918],[114.1302561,22.5418309],[114.1301702,22.5417781],[114.1300904,22.5417185],[114.1300404,22.5416748],[114.1299364,22.5415753],[114.1298381,22.5414721],[114.1297768,22.5414],[114.1294851,22.5410285],[114.1293449,22.5408497],[114.1291257,22.5405605],[114.1289622,22.5403747],[114.1289108,22.5403189],[114.1288558,22.5402661],[114.1287385,22.5401667],[114.1286214,22.540078],[114.1284989,22.5399958],[114.1283616,22.539914],[114.1282193,22.5398398],[114.1280622,22.5397712],[114.1278997,22.5397134],[114.1277814,22.539679],[114.1276615,22.5396523],[114.1275879,22.5396403],[114.1274323,22.5396251],[114.1272845,22.5396241],[114.1271645,22.5396314],[114.1270448,22.5396463],[114.1268876,22.5396749],[114.1267331,22.539713],[114.1266211,22.5397499],[114.1265094,22.5397872],[114.1263986,22.5398186],[114.1262856,22.5398466],[114.1261719,22.5398687],[114.126058,22.5398813],[114.125982,22.5398836],[114.1259121,22.539881],[114.1258422,22.5398746],[114.1257024,22.5398538],[114.1255653,22.5398283],[114.1254307,22.5397943],[114.1253245,22.539758],[114.125223,22.5397126],[114.1250825,22.5396392],[114.1249434,22.5395639],[114.1246079,22.5393781],[114.1242723,22.5391923],[114.1239089,22.5389917],[114.1235454,22.538791],[114.1232654,22.5386357],[114.1229862,22.5384789],[114.1228423,22.5383892],[114.1227054,22.5382902],[114.122443,22.5380776],[114.1222918,22.5379471],[114.1221475,22.5378101],[114.121995,22.5376528],[114.121849,22.5374908],[114.1217561,22.5373792],[114.1216624,22.5372577],[114.1215725,22.537134],[114.1213677,22.5368389],[114.1213214,22.536773],[114.1211695,22.5365401],[114.120885,22.5361005],[114.1206661,22.5357299],[114.1203587,22.5353139],[114.120215,22.5351505],[114.1200812,22.5350455],[114.1200392,22.5350167],[114.1199668,22.5349731],[114.1198918,22.5349345],[114.1198395,22.5349127],[114.1197564,22.5348843],[114.1196718,22.5348606],[114.1195444,22.5348289],[114.1194161,22.5348011],[114.1189606,22.5347231],[114.1185044,22.5346491],[114.1182017,22.5345927],[114.1179101,22.5345332],[114.1176185,22.5344736],[114.1174547,22.5344402],[114.1172909,22.5344067],[114.1172116,22.5343847],[114.1171353,22.5343541],[114.1169874,22.5342803],[114.116873,22.534217],[114.1167637,22.5341465],[114.1166474,22.5340584],[114.1165401,22.5339607],[114.1164832,22.5339009],[114.1164299,22.5338389],[114.1163325,22.5337081],[114.1162727,22.533616],[114.1162195,22.5335212],[114.1161888,22.5334556],[114.1161458,22.533345],[114.116109,22.5332327],[114.1160803,22.5331415],[114.1160555,22.5330497],[114.1160451,22.5329876],[114.1160285,22.5328242],[114.1160133,22.5326608],[114.1160022,22.532527],[114.1159895,22.5323934],[114.1159654,22.5322553],[114.1159446,22.5321658],[114.1158182,22.5317566],[114.1156382,22.5313564],[114.1156067,22.5312966],[114.1155738,22.5312545],[114.115465,22.5311476],[114.1153546,22.5310571],[114.1152478,22.5309807],[114.1147468,22.5307037],[114.114268,22.5304693],[114.1137684,22.5302027],[114.1132273,22.529889],[114.1125653,22.5296417],[114.1122045,22.5295908],[114.1119266,22.5295974],[114.1112974,22.5296918],[114.1109447,22.5298073],[114.1104814,22.5300128],[114.1100228,22.5303039],[114.1096998,22.5305492],[114.1094508,22.5307805],[114.109152,22.5311601],[114.1089456,22.5315857],[114.108654,22.5323588],[114.1084338,22.5328406],[114.1082282,22.533128],[114.1078966,22.5334508],[114.1075785,22.5336657],[114.1070681,22.5339129],[114.106237,22.5343087],[114.1052026,22.5347862],[114.1050658,22.5348406],[114.1044687,22.5350471],[114.1041918,22.5351067],[114.1039109,22.5351474],[114.1035839,22.5351705],[114.1031468,22.5351614],[114.1027565,22.5351142],[114.1022805,22.5350246],[114.1008593,22.5347454],[114.0987845,22.5343254],[114.097894,22.534144],[114.0972781,22.5341133],[114.0965323,22.5342368],[114.0962344,22.5343432],[114.0957195,22.5346072],[114.0953386,22.5349335],[114.094678,22.5355866],[114.0942598,22.5360001],[114.0938192,22.5363519],[114.0933729,22.5366056],[114.0927217,22.536891],[114.0922146,22.5369979],[114.091792,22.5370119],[114.0902462,22.5368385],[114.0896076,22.5367123],[114.0889956,22.5364748],[114.0884734,22.536146],[114.0877056,22.5353457],[114.0876788,22.5353099],[114.0870684,22.5344955],[114.0867307,22.5340096],[114.0863548,22.5334718],[114.0863162,22.5334166],[114.086214,22.5332897],[114.0859477,22.5329593],[114.0857755,22.5328077],[114.0855951,22.5326488],[114.085582,22.5326373],[114.0852472,22.5323794],[114.0845404,22.532105],[114.0841361,22.531985],[114.0832749,22.5317294],[114.0810012,22.5311567],[114.0795596,22.5306997],[114.0789892,22.5303531],[114.0785019,22.5299673],[114.0780581,22.5294594],[114.0780229,22.5294191],[114.077719,22.5288827],[114.0775092,22.5284279],[114.0769724,22.5269157],[114.0768167,22.526477],[114.0767258,22.5262207],[114.0753721,22.5224069],[114.0747921,22.5207727],[114.0745477,22.5203455],[114.074304,22.5199197],[114.073602,22.5191244],[114.0731803,22.5187873],[114.0729323,22.5186106],[114.0725409,22.5184014],[114.0721381,22.5182512],[114.0716551,22.5180744],[114.0715278,22.5180436],[114.0713629,22.5179984],[114.0707779,22.5178352],[114.0701054,22.517638],[114.0695335,22.5174688],[114.0693993,22.5174332],[114.0692558,22.517399],[114.0690482,22.5173565],[114.0685992,22.517287],[114.0673033,22.5171042],[114.0668228,22.5170364],[114.066349,22.516971],[114.0656977,22.5168819],[114.0654577,22.5168456],[114.0650656,22.5167549],[114.0647573,22.5166604],[114.0644621,22.5165446],[114.0642237,22.5164341],[114.06409,22.5163639],[114.0636316,22.5160786],[114.0635922,22.5160523],[114.0618146,22.5148689],[114.0613281,22.5145456],[114.060676,22.5141048],[114.0602527,22.5137726],[114.0597628,22.5133408],[114.0593149,22.5128733],[114.0588818,22.512345],[114.0584995,22.5117721],[114.0579984,22.5107526],[114.0576845,22.50991],[114.0574811,22.5091363],[114.0574023,22.5085916],[114.0573879,22.5084734],[114.0573595,22.5079518],[114.0573446,22.5077968],[114.0572296,22.5066029],[114.0571473,22.5061671],[114.0571015,22.5059248],[114.056976,22.5055526],[114.0568533,22.5052814],[114.0565509,22.5048188],[114.0561062,22.5043107],[114.0556715,22.5039324],[114.0551628,22.5036149],[114.0542806,22.5032362],[114.0536524,22.5029261],[114.0536046,22.502906],[114.053484,22.5028555],[114.0533459,22.5027976],[114.053298,22.5027775],[114.0524828,22.5025564],[114.0514891,22.5023687],[114.0506598,22.5023563],[114.0496956,22.5024696],[114.0489924,22.5026478],[114.0484668,22.5028231],[114.048122,22.5029933],[114.0465586,22.5037347],[114.0453527,22.5040748],[114.0430656,22.5044419],[114.0422707,22.5046482],[114.0408482,22.5050694],[114.0371474,22.5056801],[114.0318029,22.5063368],[114.0279118,22.5066659],[114.0254248,22.5067677],[114.0245384,22.5066182],[114.0225693,22.5052472],[114.0215415,22.5045394],[114.0204243,22.5038315],[114.0191281,22.503165],[114.0174967,22.5023735],[114.0166475,22.5019569],[114.0144459,22.5011528],[114.0133842,22.5008726],[114.0124453,22.5007053],[114.0121904,22.5006944],[114.0119989,22.5006557],[114.011626,22.5006553],[114.0111941,22.5007278],[114.0098589,22.5011641],[114.0085234,22.501801],[114.0075609,22.5024384],[114.0063034,22.5034948],[114.005463,22.5042583],[114.0053218,22.50438],[114.0051182,22.5045688],[114.0046747,22.505102],[114.0042792,22.5055798],[114.0039197,22.5059686],[114.0034284,22.5064684],[114.0029372,22.5069127],[114.0025178,22.5072903],[114.0021465,22.5076012],[114.0017032,22.5079566],[114.0011762,22.5083229],[114.0007569,22.5086116],[114.0004216,22.5088225],[114.0001221,22.5090112],[113.9997868,22.5091887],[113.9995114,22.5093552],[113.9991641,22.5095328],[113.9988767,22.509677],[113.9985086,22.5098585],[113.9983567,22.5099134],[113.9980718,22.5099976],[113.9977929,22.5100592],[113.9975505,22.5101096],[113.9971565,22.5101711],[113.996908,22.5101877],[113.9967261,22.5102044],[113.9965383,22.5102154],[113.9963504,22.5102209],[113.9961989,22.5102263],[113.9959746,22.5102261],[113.9957625,22.5102146],[113.9954234,22.5101915],[113.9952246,22.5101577],[113.9950575,22.5100635],[113.9701957,22.4902286],[113.9478064,22.472358],[113.9314339,22.4633043],[113.9065481,22.4495376],[113.8974042,22.4444776],[113.8742175,22.4316426],[113.8739773,22.4315097],[113.8691014,22.4288099],[113.8691027,22.4090152],[113.8691062,22.3548327],[113.8691069,22.3425072],[113.8691074,22.3333311],[113.8674076,22.3286218],[113.8668601,22.3271049],[113.8667334,22.326754],[113.8666534,22.3265323],[113.8663151,22.3255949],[113.8660327,22.3248123],[113.8658884,22.3244126],[113.8658643,22.324346],[113.8649289,22.321754],[113.8646347,22.3209388],[113.8636656,22.3182534],[113.860812,22.3103457],[113.8597914,22.3075174],[113.8573053,22.3006269],[113.853333,22.2896161],[113.8476277,22.273798],[113.8473792,22.2731091],[113.8389897,22.2677187],[113.8295296,22.2463867],[113.8263796,22.2392819],[113.8250682,22.2361397],[113.8171046,22.2170555],[113.8202323,22.2102626],[113.8251594,22.1995602],[113.8285469,22.1922011],[113.8323836,22.1838649],[113.8965498,22.1425281]]]}}]}